{
    "links": {
        "self": "http://www.neowsapp.com/rest/v1/neo/3771617?api_key=iIulBulltgU6a56xZRHN4H3l9WmuAYTsLGpBGhQ2"
    },
    "id": "3771617",
    "neo_reference_id": "3771617",
    "name": "(2017 FY)",
    "designation": "2017 FY",
    "nasa_jpl_url": "http://ssd.jpl.nasa.gov/sbdb.cgi?sstr=3771617",
    "absolute_magnitude_h": 24.8,
    "estimated_diameter": {
        "kilometers": {
            "estimated_diameter_min": 0.0291443905,
            "estimated_diameter_max": 0.0651688382
        },
        "meters": {
            "estimated_diameter_min": 29.1443904535,
            "estimated_diameter_max": 65.1688382168
        },
        "miles": {
            "estimated_diameter_min": 0.018109479,
            "estimated_diameter_max": 0.0404940262
        },
        "feet": {
            "estimated_diameter_min": 95.6180819754,
            "estimated_diameter_max": 213.8085311752
        }
    },
    "is_potentially_hazardous_asteroid": false,
    "close_approach_data": [
        {
            "close_approach_date": "1988-12-16",
            "close_approach_date_full": "1988-Dec-16 22:00",
            "epoch_date_close_approach": 598312800000,
            "relative_velocity": {
                "kilometers_per_second": "18.2077573737",
                "kilometers_per_hour": "65547.9265454348",
                "miles_per_hour": "40728.9324693009"
            },
            "miss_distance": {
                "astronomical": "0.3919757462",
                "lunar": "152.4785652718",
                "kilometers": "58638736.723180594",
                "miles": "36436421.4204724372"
            },
            "orbiting_body": "Earth"
        },
        {
            "close_approach_date": "1991-04-19",
            "close_approach_date_full": "1991-Apr-19 19:26",
            "epoch_date_close_approach": 672089160000,
            "relative_velocity": {
                "kilometers_per_second": "20.8533906528",
                "kilometers_per_hour": "75072.2063502427",
                "miles_per_hour": "46646.9495513494"
            },
            "miss_distance": {
                "astronomical": "0.4785743405",
                "lunar": "186.1654184545",
                "kilometers": "71593701.975454735",
                "miles": "44486263.552095943"
            },
            "orbiting_body": "Earth"
        },
        {
            "close_approach_date": "2004-04-05",
            "close_approach_date_full": "2004-Apr-05 18:45",
            "epoch_date_close_approach": 1081190700000,
            "relative_velocity": {
                "kilometers_per_second": "14.1183194544",
                "kilometers_per_hour": "50825.9500358458",
                "miles_per_hour": "31581.2687875509"
            },
            "miss_distance": {
                "astronomical": "0.2517739862",
                "lunar": "97.9400806318",
                "kilometers": "37664852.056929394",
                "miles": "23403853.8170538772"
            },
            "orbiting_body": "Earth"
        },
        {
            "close_approach_date": "2017-03-17",
            "close_approach_date_full": "2017-Mar-17 03:50",
            "epoch_date_close_approach": 1489722600000,
            "relative_velocity": {
                "kilometers_per_second": "7.7158743733",
                "kilometers_per_hour": "27777.1477437766",
                "miles_per_hour": "17259.6393855705"
            },
            "miss_distance": {
                "astronomical": "0.0484546891",
                "lunar": "18.8488740599",
                "kilometers": "7248718.280872217",
                "miles": "4504144.6797699146"
            },
            "orbiting_body": "Earth"
        }
    ],
    "orbital_data": {
        "orbit_id": "11",
        "orbit_determination_date": "2017-04-22 06:18:10",
        "first_observation_date": "2017-03-18",
        "last_observation_date": "2017-04-18",
        "data_arc_in_days": 31,
        "observations_used": 69,
        "orbit_uncertainty": "6",
        "minimum_orbit_intersection": ".0127354",
        "jupiter_tisserand_invariant": "4.139",
        "epoch_osculation": "2459000.5",
        "eccentricity": ".4155946323650396",
        "semi_major_axis": "1.674099602888754",
        "inclination": "2.804599418212982",
        "ascending_node_longitude": "177.3143547193486",
        "orbital_period": "791.171012607366",
        "perihelion_distance": ".9783527938837435",
        "perihelion_argument": "325.6068790279189",
        "aphelion_distance": "2.369846411893765",
        "perihelion_time": "2459385.501909650958",
        "mean_anomaly": "184.8157664199861",
        "mean_motion": ".4550217263567226",
        "equinox": "J2000",
        "orbit_class": {
            "orbit_class_type": "APO",
            "orbit_class_description": "Near-Earth asteroid orbits which cross the Earth’s orbit similar to that of 1862 Apollo",
            "orbit_class_range": "a (semi-major axis) > 1.0 AU; q (perihelion) < 1.017 AU"
        }
    },
    "is_sentry_object": false
}